NORAD_CAT_ID,OBJECT_NAME,OBJECT_TYPE,EPOCH,MEAN_MOTION,ECCENTRICITY,INCLINATION,RA_OF_ASC_NODE,ARG_OF_PERICENTER,MEAN_ANOMALY,BSTAR,MEAN_MOTION_DOT,MEAN_MOTION_DDOT,TLE_LINE0,TLE_LINE1,TLE_LINE2,SEMIMAJOR_AXIS,PERIOD,APOGEE,PERIGEE,DECAYED
51885.0,STARLINK-3584,PAYLOAD,2024-04-27 10:00:41,15.08844537,0.000188,53.2154,177.4742,76.6655,283.4547,0.00017495,2.498e-05,0.0,0 STARLINK-3584,1 51885U 22022AK  24118.41715019  .00002498  00000-0  17495-3 0  9991,2 51885  53.2154 177.4742 0001880  76.6655 283.4547 15.08844537120396,6917.867,95.437,541.032,538.431,0.0
51885.0,STARLINK-3584,PAYLOAD,2024-04-27 21:08:23,15.08841369,0.0001769,53.2146,175.3943,81.7082,278.411,8.8543e-05,1.121e-05,0.0,0 STARLINK-3584,1 51885U 22022AK  24118.88083089  .00001121  00000-0  88543-4 0  9992,2 51885  53.2146 175.3943 0001769  81.7082 278.4110 15.08841369120462,6917.876,95.437,540.965,538.517,0.0
51885.0,STARLINK-3584,PAYLOAD,2024-04-28 03:29:56,15.08829,0.000164,53.214,174.2023,102.6711,257.4465,-0.00027218,-4.616e-05,0.0,0 STARLINK-3584,1 51885U 22022AK  24119.14579475 -.00004616  00000-0 -27218-3 0  9996,2 51885  53.2140 174.2023 0001640 102.6711 257.4465 15.08829000120506,6917.914,95.438,540.914,538.644,0.0
51885.0,STARLINK-3584,PAYLOAD,2024-04-28 09:51:29,15.08825696,0.0001447,53.2137,173.0127,104.0879,256.0274,-0.0002412,-4.123e-05,0.0,0 STARLINK-3584,1 51885U 22022AK  24119.41075768 -.00004123  00000-0 -24120-3 0  9994,2 51885  53.2137 173.0127 0001447 104.0879 256.0274 15.08825696120544,6917.924,95.438,540.79,538.788,0.0
51885.0,STARLINK-3584,PAYLOAD,2024-04-28 20:59:11,15.08834671,0.0001626,53.2145,170.9297,108.3697,251.7472,-5.8608e-05,-1.221e-05,0.0,0 STARLINK-3584,1 51885U 22022AK  24119.87443853 -.00001221  00000-0 -58608-4 0  9993,2 51885  53.2145 170.9297 0001626 108.3697 251.7472 15.08834671120614,6917.897,95.438,540.887,538.637,0.0
51885.0,STARLINK-3584,PAYLOAD,2024-04-29 03:20:44,15.08838842,0.0001582,53.2149,169.7414,97.9119,262.2052,0.00016418,2.326e-05,0.0,0 STARLINK-3584,1 51885U 22022AK  24120.13939885  .00002326  00000-0  16418-3 0  9996,2 51885  53.2149 169.7414 0001582  97.9119 262.2052 15.08838842120657,6917.884,95.438,540.843,538.655,0.0
51885.0,STARLINK-3584,PAYLOAD,2024-04-29 09:42:16,15.08841837,0.0001361,53.2157,168.5516,100.3242,259.7904,0.00027373,4.071e-05,0.0,0 STARLINK-3584,1 51885U 22022AK  24120.40435845  .00004071  00000-0  27373-3 0  9994,2 51885  53.2157 168.5516 0001361 100.3242 259.7904 15.08841837120696,6917.875,95.437,540.681,538.798,0.0
51885.0,STARLINK-3584,PAYLOAD,2024-04-30 09:33:03,15.08845606,0.000146,53.2156,164.0919,100.9696,259.1461,0.00032812,4.939e-05,0.0,0 STARLINK-3584,1 51885U 22022AK  24121.39795917  .00004939  00000-0  32812-3 0  9999,2 51885  53.2156 164.0919 0001460 100.9696 259.1461 15.08845606120849,6917.863,95.437,540.738,538.718,0.0
51885.0,STARLINK-3584,PAYLOAD,2024-05-01 03:02:17,15.08848307,0.0001449,53.2148,160.8224,94.3249,265.7909,0.00015143,2.123e-05,0.0,0 STARLINK-3584,1 51885U 22022AK  24122.12659564  .00002123  00000-0  15143-3 0  9999,2 51885  53.2148 160.8224 0001449  94.3249 265.7909 15.08848307120953,6917.855,95.437,540.722,538.718,0.0
51885.0,STARLINK-3584,PAYLOAD,2024-05-01 18:56:08,15.08847803,0.00014,53.2142,157.8489,92.4144,267.7008,0.00011335,1.517e-05,0.0,0 STARLINK-3584,1 51885U 22022AK  24122.78899281  .00001517  00000-0  11335-3 0  9998,2 51885  53.2142 157.8489 0001400  92.4144 267.7008 15.08847803121050,6917.857,95.437,540.69,538.753,0.0
51885.0,STARLINK-3584,PAYLOAD,2024-05-02 07:39:14,15.08842858,0.0001504,53.2157,155.4695,94.4389,265.6775,3.6402e-05,2.91e-06,0.0,0 STARLINK-3584,1 51885U 22022AK  24123.31891380  .00000291  00000-0  36402-4 0  9991,2 51885  53.2157 155.4695 0001504  94.4389 265.6775 15.08842858121139,6917.872,95.437,540.777,538.696,0.0
51885.0,STARLINK-3584,PAYLOAD,2024-05-03 09:05:23,15.08847801,0.000145,53.2163,150.7107,97.9578,262.1578,0.00010305,1.353e-05,0.0,0 STARLINK-3584,1 51885U 22022AK  24124.37874970  .00001353  00000-0  10305-3 0  9997,2 51885  53.2163 150.7107 0001450  97.9578 262.1578 15.08847801121293,6917.857,95.437,540.725,538.718,0.0
51885.0,STARLINK-3584,PAYLOAD,2024-05-04 10:31:36,15.08825487,0.0001212,53.2148,145.9523,90.3055,269.8076,-5.6063e-05,-1.18e-05,0.0,0 STARLINK-3584,1 51885U 22022AK  24125.43861142 -.00001180  00000-0 -56063-4 0  9994,2 51885  53.2148 145.9523 0001212  90.3055 269.8076 15.08825487121458,6917.925,95.438,540.628,538.951,0.0
51885.0,STARLINK-3584,PAYLOAD,2024-05-05 10:22:23,15.0884379,0.0001327,53.2157,141.492,89.09,271.0244,-0.00018175,-3.18e-05,0.0,0 STARLINK-3584,1 51885U 22022AK  24126.43221087 -.00003180  00000-0 -18175-3 0  9996,2 51885  53.2157 141.4920 0001327  89.0900 271.0244 15.08843790121607,6917.869,95.437,540.652,538.816,0.0
51885.0,STARLINK-3584,PAYLOAD,2024-05-05 18:19:18,15.08832476,0.0001283,53.2157,140.005,83.8087,276.3051,0.00011194,1.494e-05,0.0,0 STARLINK-3584,1 51885U 22022AK  24126.76341390  .00001494  00000-0  11194-3 0  9990,2 51885  53.2157 140.0050 0001283  83.8087 276.3051 15.08832476121653,6917.903,95.438,540.656,538.881,0.0
51885.0,STARLINK-3584,PAYLOAD,2024-05-06 05:27:01,15.08821519,0.0001327,53.217,137.9204,90.566,269.5485,0.00011226,1.498e-05,0.0,0 STARLINK-3584,1 51885U 22022AK  24127.22710499  .00001498  00000-0  11226-3 0  9992,2 51885  53.2170 137.9204 0001327  90.5660 269.5485 15.08821519121724,6917.937,95.439,540.72,538.884,0.0
51885.0,STARLINK-3584,PAYLOAD,2024-05-06 10:13:11,15.08825037,0.0001535,53.217,137.0264,117.0269,243.088,9.8787e-05,1.284e-05,0.0,0 STARLINK-3584,1 51885U 22022AK  24127.42582423  .00001284  00000-0  98787-4 0  9999,2 51885  53.2170 137.0264 0001535 117.0269 243.0880 15.08825037121750,6917.926,95.439,540.853,538.729,0.0
51885.0,STARLINK-3584,PAYLOAD,2024-05-06 18:10:06,15.08836643,0.000135,53.2165,135.5442,88.5859,271.5288,0.00020623,2.995e-05,0.0,0 STARLINK-3584,1 51885U 22022AK  24127.75701803  .00002995  00000-0  20623-3 0  9993,2 51885  53.2165 135.5442 0001350  88.5859 271.5288 15.08836643121806,6917.891,95.438,540.69,538.822,0.0
51885.0,STARLINK-3584,PAYLOAD,2024-05-07 10:03:57,15.08849669,0.0001293,53.2161,132.5704,87.7021,272.4119,0.00021159,3.082e-05,0.0,0 STARLINK-3584,1 51885U 22022AK  24128.41941041  .00003082  00000-0  21159-3 0  9990,2 51885  53.2161 132.5704 0001293  87.7021 272.4119 15.08849669121904,6917.851,95.437,540.61,538.821,0.0
51885.0,STARLINK-3584,PAYLOAD,2024-05-08 09:54:43,15.08851507,0.0001232,53.2161,128.1096,90.3636,269.7497,0.00033948,5.121e-05,0.0,0 STARLINK-3584,1 51885U 22022AK  24129.41300106  .00005121  00000-0  33948-3 0  9997,2 51885  53.2161 128.1096 0001232  90.3636 269.7497 15.08851507122053,6917.845,95.437,540.562,538.858,0.0
51885.0,STARLINK-3584,PAYLOAD,2024-05-09 04:59:21,15.08848719,0.000135,53.2163,124.5415,91.4073,268.7074,3.5394e-06,-2.32e-06,0.0,0 STARLINK-3584,1 51885U 22022AK  24130.20788583 -.00000232  00000-0  35394-5 0  9993,2 51885  53.2163 124.5415 0001350  91.4073 268.7074 15.08848719122172,6917.854,95.437,540.653,538.785,0.0
51885.0,STARLINK-3584,PAYLOAD,2024-05-09 09:45:30,15.08852378,0.0001276,53.2162,123.6489,95.5138,264.5999,2.1449e-05,5.4e-07,0.0,0 STARLINK-3584,1 51885U 22022AK  24130.40660133  .00000054  00000-0  21449-4 0  9991,2 51885  53.2162 123.6489 0001276  95.5138 264.5999 15.08852378122206,6917.843,95.437,540.59,538.825,0.0
51885.0,STARLINK-3584,PAYLOAD,2024-05-09 16:07:03,15.08848671,0.0001254,53.216,122.4591,94.0339,266.0797,-7.9373e-06,-4.14e-06,0.0,0 STARLINK-3584,1 51885U 22022AK  24130.67156325 -.00000414  00000-0 -79373-5 0  9995,2 51885  53.2160 122.4591 0001254  94.0339 266.0797 15.08848671122246,6917.854,95.437,540.586,538.851,0.0
51885.0,STARLINK-3584,PAYLOAD,2024-05-10 06:25:31,15.08847353,0.0001392,53.2172,119.7845,97.7563,262.3588,-5.5611e-05,-1.173e-05,0.0,0 STARLINK-3584,1 51885U 22022AK  24131.26772397 -.00001173  00000-0 -55611-4 0  9995,2 51885  53.2172 119.7845 0001392  97.7563 262.3588 15.08847353122335,6917.858,95.437,540.686,538.76,0.0
51885.0,STARLINK-3584,PAYLOAD,2024-05-10 15:57:50,15.08847233,0.0001391,53.2173,118.0006,94.4658,265.6493,-5.8254e-05,-1.215e-05,0.0,0 STARLINK-3584,1 51885U 22022AK  24131.66516265 -.00001215  00000-0 -58254-4 0  9992,2 51885  53.2173 118.0006 0001391  94.4658 265.6493 15.08847233122399,6917.858,95.437,540.686,538.761,0.0
51885.0,STARLINK-3584,PAYLOAD,2024-05-11 07:51:40,15.08875347,0.0001504,53.2166,115.0259,129.5851,230.5274,0.00060527,9.367e-05,0.0,0 STARLINK-3584,1 51885U 22022AK  24132.32754692  .00009367  00000-0  60527-3 0  9993,2 51885  53.2166 115.0259 0001504 129.5851 230.5274 15.08875347122495,6917.772,95.435,540.678,538.597,0.0
51885.0,STARLINK-3584,PAYLOAD,2024-05-11 15:48:35,15.08873067,0.0001593,53.2156,113.5382,83.205,276.9124,0.00047971,7.362e-05,0.0,0 STARLINK-3584,1 51885U 22022AK  24132.65874260  .00007362  00000-0  47971-3 0  9994,2 51885  53.2156 113.5382 0001593  83.2050 276.9124 15.08873067122540,6917.779,95.435,540.746,538.542,0.0
51885.0,STARLINK-3584,PAYLOAD,2024-05-12 04:31:43,15.08778731,0.0001472,53.216,111.1596,58.4043,301.7092,-0.0011895,-0.00019137,0.0,0 STARLINK-3584,1 51885U 22022AK  24133.18870179 -.00019137  00000-0 -11895-2 0  9998,2 51885  53.2160 111.1596 0001472  58.4043 301.7092 15.08778731122620,6918.068,95.441,540.951,538.914,0.0
51885.0,STARLINK-3584,PAYLOAD,2024-05-12 07:42:30,15.08775097,0.0001183,53.2161,110.565,94.4312,265.6815,-0.0012128,-0.00019503,0.0,0 STARLINK-3584,1 51885U 22022AK  24133.32118512 -.00019503  00000-0 -12128-2 0  9997,2 51885  53.2161 110.5650 0001183  94.4312 265.6815 15.08775097122648,6918.079,95.442,540.762,539.125,0.0
51885.0,STARLINK-3584,PAYLOAD,2024-05-12 22:00:59,15.08789777,0.0001628,53.2176,107.8899,82.4607,277.657,-0.00061865,-0.00010107,0.0,0 STARLINK-3584,1 51885U 22022AK  24133.91735973 -.00010107  00000-0 -61865-3 0  9992,2 51885  53.2176 107.8899 0001628  82.4607 277.6570 15.08789777122737,6918.034,95.441,541.025,538.773,0.0
